ONEWEB-0306             
1 49188U 21083C   24053.80359060  .00000017  00000+0  11043-4 0  9999
2 49188  87.9235 143.6973 0002154 109.3143 250.8222 13.18686527118606
ONEWEB-0307             
1 49189U 21083D   24053.73982085 -.00007496  00000+0 -20565-1 0  9997
2 49189  87.8981 128.5547 0001820  97.4023 262.7313 13.13510975119945
ONEWEB-0320             
1 49190U 21083E   24053.80991910  .00000010  00000+0 -84701-5 0  9994
2 49190  87.9236 143.7187 0001799 104.2713 255.8619 13.18685779118567
ONEWEB-0321             
1 49191U 21083F   24053.83091536  .00000121  00000+0  26595-3 0  9990
2 49191  87.9128  82.6899 0002002  85.2982 274.8379 13.20771974125246
ONEWEB-0322             
1 49192U 21083G   24053.73582827  .00000288  00000+0  75479-3 0  9997
2 49192  87.8988 128.5437 0001720  88.2606 271.8720 13.13470111119937
ONEWEB-0324             
1 49193U 21083H   24053.79569032 -.00000042  00000+0 -13969-3 0  9993
2 49193  87.9236 143.7043 0001560 112.7137 247.4160 13.18685982118587
ONEWEB-0325             
1 49194U 21083J   24053.80042502  .00000005  00000+0 -19384-4 0  9990
2 49194  87.9236 143.7162 0001875 103.8732 256.2609 13.18688763118598
ONEWEB-0326             
1 49195U 21083K   24053.81465537  .00000112  00000+0  25210-3 0  9991
2 49195  87.9231 143.7151 0002070 124.4604 235.6724 13.18685396118584
